ONEWEB-0661             
1 55821U 23029AB  24055.85261286  .00000054  00000+0  11081-3 0  9993
2 55821  87.8916  97.5980 0002458  91.4928 268.6483 13.14503417 48594
ONEWEB-0662             
1 55822U 23029AC  24056.19196508  .00000202  00000+0  51089-3 0  9993
2 55822  87.8918  97.5386 0002207  85.6543 274.4839 13.14501579 49393
ONEWEB-0663             
1 55823U 23029AD  24056.47926054 -.00001815  00000+0 -44984-2 0  9990
2 55823  87.9128  82.1898 0002162  84.6720 275.4660 13.20756531 50585
ONEWEB-0664             
1 55824U 23029AE  24056.47293773  .00000024  00000+0  26850-4 0  9999
2 55824  87.9130  82.2025 0002453  98.3201 261.8211 13.20771215 50599
ONEWEB-0665             
1 55825U 23029AF  24055.84943612  .00000011  00000+0 -55434-5 0  9992
2 55825  87.8915  97.5739 0002286  90.1016 270.0376 13.14503804 48613
ONEWEB-0666             
1 55826U 23029AG  24056.01207717  .00000098  00000+0  20875-3 0  9995
2 55826  87.9129  82.2859 0001787 107.1236 253.0093 13.20770504 50535
ONEWEB-0667             
1 55827U 23029AH  24055.77848664  .00001273  00000+0  30993-2 0  9997
2 55827  87.9130  82.2668 0002361  91.2906 268.8498 13.20779805 49817
ONEWEB-0669             
1 55828U 23029AJ  24056.15254109  .00000160  00000+0  36157-3 0  9999
2 55828  87.9132  82.2302 0002355 113.0742 247.0639 13.20772873 50545
